OBJECT_NAME,OBJECT_ID,EPOCH,MEAN_MOTION,ECCENTRICITY,INCLINATION,RA_OF_ASC_NODE,ARG_OF_PERICENTER,MEAN_ANOMALY,EPHEMERIS_TYPE,CLASSIFICATION_TYPE,NORAD_CAT_ID,ELEMENT_SET_NO,REV_AT_EPOCH,BSTAR,MEAN_MOTION_DOT,MEAN_MOTION_DDOT
JY1SAT (JO-97),2018-099AX,2024-01-20T02:32:01.531392,15.04209361,.0012013,97.5456,82.2946,91.4596,268.8006,0,U,43803,999,28026,.72842E-3,.10084E-3,0
UWE-4,2018-111E,2024-01-20T06:18:51.366528,15.05949942,.0018374,97.6235,287.4045,149.8668,210.3620,0,U,43880,999,27699,.71895E-3,.1045E-3,0
JAISAT-1,2019-038F,2024-01-20T12:20:52.472544,15.48195019,.0007305,97.6839,17.1481,227.2554,132.8081,0,U,44419,999,25193,.12812E-2,.67866E-3,0
DUCHIFAT-3,2019-089C,2024-01-20T16:58:15.849696,15.11253744,.0009583,36.9582,226.7074,313.2610,46.7335,0,U,44854,999,22569,.80973E-3,.13856E-3,0
TIANYAN 01,2019-093C,2024-01-20T18:47:18.397248,14.83190956,.0015948,97.8435,100.4058,88.2353,272.0688,0,U,44881,999,22104,.22445E-3,.1783E-4,0
RS-44 & BREEZE-KM R/B,2019-096E,2024-01-20T13:37:33.176640,12.79726160,.0218022,82.5200,203.5020,38.9246,322.7325,0,U,44909,999,18996,.16603E-3,.54E-6,0
BY70-2,2020-042B,2024-01-20T19:23:47.114880,15.04541532,.0007396,97.9198,108.3094,352.0741,8.0366,0,U,45857,999,19208,.37628E-2,.53071E-3,0
SALSAT,2020-068K,2024-01-20T10:02:01.853664,15.10533015,.0016354,97.7975,336.4648,99.4324,260.8754,0,U,46495,999,18183,.50442E-3,.8278E-4,0
RADFXSAT-2 (AO-109),2021-002C,2024-01-20T06:03:54.325440,15.61343320,.0027463,60.6733,292.9713,66.6283,293.7706,0,U,47311,999,16788,.11579E-2,.102303E-2,0
UVSQ-SAT,2021-006AB,2024-01-20T14:26:19.768416,15.34417774,.0008645,97.3536,80.5725,36.8206,323.3629,0,U,47438,999,16586,.90114E-3,.30074E-3,0
LEDSAT,2021-073D,2024-01-20T17:28:32.653344,15.19442669,.00228,97.4583,93.3599,84.6727,275.7108,0,U,49069,999,13387,.73017E-3,.15532E-3,0
XW-3 (CAS-9),2021-131B,2024-01-20T19:00:19.857600,14.39312132,.0003921,98.5380,106.5634,195.8326,164.2740,0,U,50466,999,10865,.35671E-3,.1064E-4,0
TEVEL-3,2022-002E,2024-01-20T17:58:13.812672,15.39312421,.0005151,97.4050,92.7994,174.3803,185.7501,0,U,50988,999,11205,.132E-2,.51712E-3,0
TEVEL-8,2022-002F,2024-01-20T18:41:05.910432,15.39216213,.0005102,97.4068,92.9111,171.8280,188.3049,0,U,50989,999,11205,.12989E-2,.50717E-3,0
TEVEL-5,2022-002Q,2024-01-20T19:00:40.683456,15.41017048,.0005912,97.4044,93.5896,166.9451,193.1949,0,U,50998,999,11211,.1376E-2,.57062E-3,0
TEVEL-6,2022-002R,2024-01-20T19:00:25.355232,15.40990350,.0005913,97.4042,93.5763,166.7167,193.4236,0,U,50999,999,11211,.14315E-2,.59332E-3,0
TEVEL-1,2022-002AF,2024-01-20T18:24:51.630336,15.39225950,.000496,97.4042,92.7173,173.3923,186.7389,0,U,51013,999,11205,.12297E-2,.48008E-3,0
TEVEL-7,2022-002CG,2024-01-20T17:02:00.261600,15.39269015,.0005084,97.4061,92.8121,172.5805,187.5516,0,U,51062,999,11204,.12494E-2,.48854E-3,0
TEVEL-4,2022-002CH,2024-01-20T19:02:09.269376,15.39132556,.0005075,97.4061,92.8452,171.6878,188.4452,0,U,51063,999,11205,.1381E-2,.53803E-3,0
TEVEL-2,2022-002CP,2024-01-20T17:58:40.414368,15.39328989,.0005116,97.4047,92.7666,174.0678,186.0629,0,U,51069,999,11205,.12895E-2,.50535E-3,0
GREENCUBE,2022-080B,2024-01-17T23:52:34.678848,6.42557672,.0008291,70.1336,245.0570,138.2840,221.8452,0,U,53106,999,3555,0,-.3E-7,0
CYCLOPS (RS29S),2022-096D,2024-01-20T09:28:38.121888,15.72621126,.0005669,97.3951,297.8253,100.0262,260.1642,0,U,53373,999,8135,.15299E-2,.209606E-2,0
MONITOR-1 (RS32S),2022-096E,2024-01-20T18:35:31.913088,15.67512420,.0005845,97.3895,297.3006,97.1767,263.0158,0,U,53374,999,8136,.1471E-2,.162307E-2,0
KUZBASS-300 (RS34S),2022-096F,2024-01-20T18:49:11.180352,15.55164756,.0004621,97.3986,295.4852,87.5582,272.6201,0,U,53375,999,8123,.11948E-2,.81209E-3,0
UTMN (RS23S),2022-096G,2024-01-20T18:33:29.230272,15.57618645,.0004606,97.3964,295.9247,93.3627,266.8155,0,U,53376,999,8126,.11993E-2,.89333E-3,0
MIET-AIS (RS28S),2022-096H,2024-01-20T19:52:49.306944,15.52736819,.0003966,97.4004,295.1628,87.4074,272.7633,0,U,53377,999,8121,.10566E-2,.65622E-3,0
KAI-1 (RS26S),2022-096J,2024-01-20T18:32:38.095296,15.48111859,.0003793,97.4042,294.0886,86.5820,273.5864,0,U,53378,999,8113,.9431E-3,.49637E-3,0
ISOI (RS19S),2022-096M,2024-01-20T19:45:23.832864,15.54053839,.0003465,97.4021,295.7475,63.8172,296.3437,0,U,53381,999,8125,.94172E-3,.61286E-3,0
CUBESX-HSE-2 (RS21S),2022-096P,2024-01-20T19:16:10.189344,15.57241405,.0003785,97.3976,296.2129,57.6339,302.5282,0,U,53383,999,8128,.11915E-2,.87482E-3,0
SIREN (RS30S),2022-096Q,2024-01-20T19:22:41.195136,15.51020992,.000336,97.4017,295.0562,51.5265,308.6288,0,U,53384,999,8120,.94405E-3,.55062E-3,0
