JY1SAT (JO-97)          
1 43803U 18099AX  24020.10557328  .00010084  00000+0  72842-3 0  9992
2 43803  97.5456  82.2946 0012013  91.4596 268.8006 15.04209361280267
UWE-4                   
1 43880U 18111E   24020.26309452  .00010450  00000+0  71895-3 0  9996
2 43880  97.6235 287.4045 0018374 149.8668 210.3620 15.05949942276997
JAISAT-1                
1 44419U 19038F   24020.51449621  .00067866  00000+0  12812-2 0  9991
2 44419  97.6839  17.1481 0007305 227.2554 132.8081 15.48195019251936
DUCHIFAT-3              
1 44854U 19089C   24020.70712789  .00013856  00000+0  80973-3 0  9993
2 44854  36.9582 226.7074 0009583 313.2610  46.7335 15.11253744225694
TIANYAN 01              
1 44881U 19093C   24020.78285182  .00001783  00000+0  22445-3 0  9994
2 44881  97.8435 100.4058 0015948  88.2353 272.0688 14.83190956221045
RS-44 & BREEZE-KM R/B   
1 44909U 19096E   24020.56774510  .00000054  00000+0  16603-3 0  9991
2 44909  82.5200 203.5020 0218022  38.9246 322.7325 12.79726160189962
BY70-2                  
1 45857U 20042B   24020.80818420  .00053071  00000+0  37628-2 0  9999
2 45857  97.9198 108.3094 0007396 352.0741   8.0366 15.04541532192089
SALSAT                  
1 46495U 20068K   24020.41807701  .00008278  00000+0  50442-3 0  9992
2 46495  97.7975 336.4648 0016354  99.4324 260.8754 15.10533015181835
RADFXSAT-2 (AO-109)     
1 47311U 21002C   24020.25271210  .00102303  00000+0  11579-2 0  9992
2 47311  60.6733 292.9713 0027463  66.6283 293.7706 15.61343320167881
UVSQ-SAT                
1 47438U 21006AB  24020.60161769  .00030074  00000+0  90114-3 0  9990
2 47438  97.3536  80.5725 0008645  36.8206 323.3629 15.34417774165863
LEDSAT                  
1 49069U 21073D   24020.72815571  .00015532  00000+0  73017-3 0  9991
2 49069  97.4583  93.3599 0022800  84.6727 275.7108 15.19442669133879
XW-3 (CAS-9)            
1 50466U 21131B   24020.79189650  .00001064  00000+0  35671-3 0  9997
2 50466  98.5380 106.5634 0003921 195.8326 164.2740 14.39312132108653
TEVEL-3                 
1 50988U 22002E   24020.74877098  .00051712  00000+0  13200-2 0  9997
2 50988  97.4050  92.7994 0005151 174.3803 185.7501 15.39312421112052
TEVEL-8                 
1 50989U 22002F   24020.77854063  .00050717  00000+0  12989-2 0  9995
2 50989  97.4068  92.9111 0005102 171.8280 188.3049 15.39216213112050
TEVEL-5                 
1 50998U 22002Q   24020.79213754  .00057062  00000+0  13760-2 0  9991
2 50998  97.4044  93.5896 0005912 166.9451 193.1949 15.41017048112113
TEVEL-6                 
1 50999U 22002R   24020.79196013  .00059332  00000+0  14315-2 0  9999
2 50999  97.4042  93.5763 0005913 166.7167 193.4236 15.40990350112115
TEVEL-1                 
1 51013U 22002AF  24020.76726424  .00048008  00000+0  12297-2 0  9994
2 51013  97.4042  92.7173 0004960 173.3923 186.7389 15.39225950112056
TEVEL-7                 
1 51062U 22002CG  24020.70972525  .00048854  00000+0  12494-2 0  9995
2 51062  97.4061  92.8121 0005084 172.5805 187.5516 15.39269015112043
TEVEL-4                 
1 51063U 22002CH  24020.79316284  .00053803  00000+0  13810-2 0  9992
2 51063  97.4061  92.8452 0005075 171.6878 188.4452 15.39132556112050
TEVEL-2                 
1 51069U 22002CP  24020.74907887  .00050535  00000+0  12895-2 0  9999
2 51069  97.4047  92.7666 0005116 174.0678 186.0629 15.39328989112054
GREENCUBE               
1 53106U 22080B   24017.99484582 -.00000003  00000+0  00000+0 0  9992
2 53106  70.1336 245.0570 0008291 138.2840 221.8452  6.42557672 35552
CYCLOPS (RS29S)         
1 53373U 22096D   24020.39488567  .00209606  00000+0  15299-2 0  9998
2 53373  97.3951 297.8253 0005669 100.0262 260.1642 15.72621126 81351
MONITOR-1 (RS32S)       
1 53374U 22096E   24020.77467492  .00162307  00000+0  14710-2 0  9998
2 53374  97.3895 297.3006 0005845  97.1767 263.0158 15.67512420 81367
KUZBASS-300 (RS34S)     
1 53375U 22096F   24020.78415718  .00081209  00000+0  11948-2 0  9995
2 53375  97.3986 295.4852 0004621  87.5582 272.6201 15.55164756 81239
UTMN (RS23S)            
1 53376U 22096G   24020.77325498  .00089333  00000+0  11993-2 0  9996
2 53376  97.3964 295.9247 0004606  93.3627 266.8155 15.57618645 81266
MIET-AIS (RS28S)        
1 53377U 22096H   24020.82834846  .00065622  00000+0  10566-2 0  9995
2 53377  97.4004 295.1628 0003966  87.4074 272.7633 15.52736819 81217
KAI-1 (RS26S)           
1 53378U 22096J   24020.77266314  .00049637  00000+0  94310-3 0  9997
2 53378  97.4042 294.0886 0003793  86.5820 273.5864 15.48111859 81133
ISOI (RS19S)            
1 53381U 22096M   24020.82319251  .00061286  00000+0  94172-3 0  9996
2 53381  97.4021 295.7475 0003465  63.8172 296.3437 15.54053839 81252
CUBESX-HSE-2 (RS21S)    
1 53383U 22096P   24020.80289571  .00087482  00000+0  11915-2 0  9996
2 53383  97.3976 296.2129 0003785  57.6339 302.5282 15.57241405 81287
SIREN (RS30S)           
1 53384U 22096Q   24020.80742124  .00055062  00000+0  94405-3 0  9990
2 53384  97.4017 295.0562 0003360  51.5265 308.6288 15.51020992 81208
